ARKTIKA-M 2             
1 58584U 23198A   25151.42058618  .00000163  00000+0  00000+0 0  9999
2 58584  63.2288 196.2020 6874302 268.8861  18.4535  2.00603141 10666
TIANMU-1 11             
1 58645U 23205A   25151.88760946  .00005156  00000+0  22868-3 0  9997
2 58645  97.3723 175.1327 0007999 266.1227  93.9095 15.22002622 79437
TIANMU-1 12             
1 58646U 23205B   25151.83814726  .00004902  00000+0  21805-3 0  9997
2 58646  97.3709 174.9480 0006155 250.2804 109.7768 15.21934500 79416
TIANMU-1 13             
1 58647U 23205C   25151.80498232  .00005294  00000+0  23539-3 0  9996
2 58647  97.3739 175.0449 0006697 224.3692 135.7009 15.21906829 79404
TIANMU-1 14             
1 58648U 23205D   25151.85412504  .00005010  00000+0  22275-3 0  9992
2 58648  97.3667 174.6221 0007596 231.7698 128.2855 15.21930070 79417
TIANMU-1 19             
1 58660U 23208A   25151.81030136  .00006401  00000+0  26710-3 0  9995
2 58660  97.4272 264.0699 0005080 209.4438 150.6513 15.24003059 79104
TIANMU-1 20             
1 58661U 23208B   25151.81878826  .00006476  00000+0  26065-3 0  9997
2 58661  97.4208 264.3353 0007205 225.7404 134.3243 15.25204857 79153
TIANMU-1 21             
1 58662U 23208C   25151.82997461  .00007338  00000+0  27857-3 0  9994
2 58662  97.4251 265.5002 0006895 222.4990 137.5715 15.27111287 79216
TIANMU-1 22             
1 58663U 23208D   25151.86255249  .00006584  00000+0  27474-3 0  9997
2 58663  97.4267 264.2253 0003054 232.2220 127.8741 15.23998272 79121
TIANMU-1 15             
1 58700U 24004A   25151.58809240  .00005470  00000+0  24391-3 0  9997
2 58700  97.4657 334.1979 0005273 249.7529 110.3140 15.21813369 77644
TIANMU-1 16             
1 58701U 24004B   25151.83584050  .00005397  00000+0  24037-3 0  9990
2 58701  97.4591 333.9974 0005566 255.8378 104.2240 15.21856040 77689
TIANMU-1 17             
1 58702U 24004C   25151.82326245  .00005139  00000+0  22801-3 0  9991
2 58702  97.4629 334.2957 0004188 256.1415 103.9356 15.22017216 77670
TIANMU-1 18             
1 58703U 24004D   25151.87064853  .00005256  00000+0  23373-3 0  9996
2 58703  97.4647 334.4962 0004166 239.7308 120.3516 15.21928295 77682
INSAT-3DS               
1 58990U 24033A   25151.80739036 -.00000161  00000+0  00000+0 0  9990
2 58990   0.0166 283.5151 0001044 132.7275 206.0296  1.00271078  4990
