[
  {
    "OBJECT_NAME": "ARKTIKA-M 2",
    "OBJECT_ID": "2023-198A",
    "EPOCH": "2025-05-31T10:05:38.645952",
    "MEAN_MOTION": 2.00603141,
    "ECCENTRICITY": 0.6874302,
    "INCLINATION": 63.2288,
    "RA_OF_ASC_NODE": 196.202,
    "ARG_OF_PERICENTER": 268.8861,
    "MEAN_ANOMALY": 18.4535,
    "EPHEMERIS_TYPE": 0,
    "CLASSIFICATION_TYPE": "U",
    "NORAD_CAT_ID": 58584,
    "ELEMENT_SET_NO": 999,
    "REV_AT_EPOCH": 1066,
    "BSTAR": 0,
    "MEAN_MOTION_DOT": 1.63e-06,
    "MEAN_MOTION_DDOT": 0
  },
  {
    "OBJECT_NAME": "TIANMU-1 11",
    "OBJECT_ID": "2023-205A",
    "EPOCH": "2025-05-31T21:18:09.457344",
    "MEAN_MOTION": 15.22002622,
    "ECCENTRICITY": 0.0007999,
    "INCLINATION": 97.3723,
    "RA_OF_ASC_NODE": 175.1327,
    "ARG_OF_PERICENTER": 266.1227,
    "MEAN_ANOMALY": 93.9095,
    "EPHEMERIS_TYPE": 0,
    "CLASSIFICATION_TYPE": "U",
    "NORAD_CAT_ID": 58645,
    "ELEMENT_SET_NO": 999,
    "REV_AT_EPOCH": 7943,
    "BSTAR": 0.00022868,
    "MEAN_MOTION_DOT": 5.156e-05,
    "MEAN_MOTION_DDOT": 0
  },
  {
    "OBJECT_NAME": "TIANMU-1 12",
    "OBJECT_ID": "2023-205B",
    "EPOCH": "2025-05-31T20:06:55.923264",
    "MEAN_MOTION": 15.219345,
    "ECCENTRICITY": 0.0006155,
    "INCLINATION": 97.3709,
    "RA_OF_ASC_NODE": 174.948,
    "ARG_OF_PERICENTER": 250.2804,
    "MEAN_ANOMALY": 109.7768,
    "EPHEMERIS_TYPE": 0,
    "CLASSIFICATION_TYPE": "U",
    "NORAD_CAT_ID": 58646,
    "ELEMENT_SET_NO": 999,
    "REV_AT_EPOCH": 7941,
    "BSTAR": 0.00021805,
    "MEAN_MOTION_DOT": 4.902e-05,
    "MEAN_MOTION_DDOT": 0
  },
  {
    "OBJECT_NAME": "TIANMU-1 13",
    "OBJECT_ID": "2023-205C",
    "EPOCH": "2025-05-31T19:19:10.472448",
    "MEAN_MOTION": 15.21906829,
    "ECCENTRICITY": 0.0006697,
    "INCLINATION": 97.3739,
    "RA_OF_ASC_NODE": 175.0449,
    "ARG_OF_PERICENTER": 224.3692,
    "MEAN_ANOMALY": 135.7009,
    "EPHEMERIS_TYPE": 0,
    "CLASSIFICATION_TYPE": "U",
    "NORAD_CAT_ID": 58647,
    "ELEMENT_SET_NO": 999,
    "REV_AT_EPOCH": 7940,
    "BSTAR": 0.00023539,
    "MEAN_MOTION_DOT": 5.294e-05,
    "MEAN_MOTION_DDOT": 0
  },
  {
    "OBJECT_NAME": "TIANMU-1 14",
    "OBJECT_ID": "2023-205D",
    "EPOCH": "2025-05-31T20:29:56.403456",
    "MEAN_MOTION": 15.2193007,
    "ECCENTRICITY": 0.0007596,
    "INCLINATION": 97.3667,
    "RA_OF_ASC_NODE": 174.6221,
    "ARG_OF_PERICENTER": 231.7698,
    "MEAN_ANOMALY": 128.2855,
    "EPHEMERIS_TYPE": 0,
    "CLASSIFICATION_TYPE": "U",
    "NORAD_CAT_ID": 58648,
    "ELEMENT_SET_NO": 999,
    "REV_AT_EPOCH": 7941,
    "BSTAR": 0.00022275,
    "MEAN_MOTION_DOT": 5.01e-05,
    "MEAN_MOTION_DDOT": 0
  },
  {
    "OBJECT_NAME": "TIANMU-1 19",
    "OBJECT_ID": "2023-208A",
    "EPOCH": "2025-05-31T19:26:50.037504",
    "MEAN_MOTION": 15.24003059,
    "ECCENTRICITY": 0.000508,
    "INCLINATION": 97.4272,
    "RA_OF_ASC_NODE": 264.0699,
    "ARG_OF_PERICENTER": 209.4438,
    "MEAN_ANOMALY": 150.6513,
    "EPHEMERIS_TYPE": 0,
    "CLASSIFICATION_TYPE": "U",
    "NORAD_CAT_ID": 58660,
    "ELEMENT_SET_NO": 999,
    "REV_AT_EPOCH": 7910,
    "BSTAR": 0.0002671,
    "MEAN_MOTION_DOT": 6.401e-05,
    "MEAN_MOTION_DDOT": 0
  },
  {
    "OBJECT_NAME": "TIANMU-1 20",
    "OBJECT_ID": "2023-208B",
    "EPOCH": "2025-05-31T19:39:03.305664",
    "MEAN_MOTION": 15.25204857,
    "ECCENTRICITY": 0.0007205,
    "INCLINATION": 97.4208,
    "RA_OF_ASC_NODE": 264.3353,
    "ARG_OF_PERICENTER": 225.7404,
    "MEAN_ANOMALY": 134.3243,
    "EPHEMERIS_TYPE": 0,
    "CLASSIFICATION_TYPE": "U",
    "NORAD_CAT_ID": 58661,
    "ELEMENT_SET_NO": 999,
    "REV_AT_EPOCH": 7915,
    "BSTAR": 0.00026065,
    "MEAN_MOTION_DOT": 6.476e-05,
    "MEAN_MOTION_DDOT": 0
  },
  {
    "OBJECT_NAME": "TIANMU-1 21",
    "OBJECT_ID": "2023-208C",
    "EPOCH": "2025-05-31T19:55:09.806304",
    "MEAN_MOTION": 15.27111287,
    "ECCENTRICITY": 0.0006895,
    "INCLINATION": 97.4251,
    "RA_OF_ASC_NODE": 265.5002,
    "ARG_OF_PERICENTER": 222.499,
    "MEAN_ANOMALY": 137.5715,
    "EPHEMERIS_TYPE": 0,
    "CLASSIFICATION_TYPE": "U",
    "NORAD_CAT_ID": 58662,
    "ELEMENT_SET_NO": 999,
    "REV_AT_EPOCH": 7921,
    "BSTAR": 0.00027857,
    "MEAN_MOTION_DOT": 7.338e-05,
    "MEAN_MOTION_DDOT": 0
  },
  {
    "OBJECT_NAME": "TIANMU-1 22",
    "OBJECT_ID": "2023-208D",
    "EPOCH": "2025-05-31T20:42:04.535136",
    "MEAN_MOTION": 15.23998272,
    "ECCENTRICITY": 0.0003054,
    "INCLINATION": 97.4267,
    "RA_OF_ASC_NODE": 264.2253,
    "ARG_OF_PERICENTER": 232.222,
    "MEAN_ANOMALY": 127.8741,
    "EPHEMERIS_TYPE": 0,
    "CLASSIFICATION_TYPE": "U",
    "NORAD_CAT_ID": 58663,
    "ELEMENT_SET_NO": 999,
    "REV_AT_EPOCH": 7912,
    "BSTAR": 0.00027474,
    "MEAN_MOTION_DOT": 6.584e-05,
    "MEAN_MOTION_DDOT": 0
  },
  {
    "OBJECT_NAME": "TIANMU-1 15",
    "OBJECT_ID": "2024-004A",
    "EPOCH": "2025-05-31T14:06:51.183360",
    "MEAN_MOTION": 15.21813369,
    "ECCENTRICITY": 0.0005273,
    "INCLINATION": 97.4657,
    "RA_OF_ASC_NODE": 334.1979,
    "ARG_OF_PERICENTER": 249.7529,
    "MEAN_ANOMALY": 110.314,
    "EPHEMERIS_TYPE": 0,
    "CLASSIFICATION_TYPE": "U",
    "NORAD_CAT_ID": 58700,
    "ELEMENT_SET_NO": 999,
    "REV_AT_EPOCH": 7764,
    "BSTAR": 0.00024391,
    "MEAN_MOTION_DOT": 5.47e-05,
    "MEAN_MOTION_DDOT": 0
  },
  {
    "OBJECT_NAME": "TIANMU-1 16",
    "OBJECT_ID": "2024-004B",
    "EPOCH": "2025-05-31T20:03:36.619200",
    "MEAN_MOTION": 15.2185604,
    "ECCENTRICITY": 0.0005566,
    "INCLINATION": 97.4591,
    "RA_OF_ASC_NODE": 333.9974,
    "ARG_OF_PERICENTER": 255.8378,
    "MEAN_ANOMALY": 104.224,
    "EPHEMERIS_TYPE": 0,
    "CLASSIFICATION_TYPE": "U",
    "NORAD_CAT_ID": 58701,
    "ELEMENT_SET_NO": 999,
    "REV_AT_EPOCH": 7768,
    "BSTAR": 0.00024037,
    "MEAN_MOTION_DOT": 5.397e-05,
    "MEAN_MOTION_DDOT": 0
  },
  {
    "OBJECT_NAME": "TIANMU-1 17",
    "OBJECT_ID": "2024-004C",
    "EPOCH": "2025-05-31T19:45:29.875680",
    "MEAN_MOTION": 15.22017216,
    "ECCENTRICITY": 0.0004188,
    "INCLINATION": 97.4629,
    "RA_OF_ASC_NODE": 334.2957,
    "ARG_OF_PERICENTER": 256.1415,
    "MEAN_ANOMALY": 103.9356,
    "EPHEMERIS_TYPE": 0,
    "CLASSIFICATION_TYPE": "U",
    "NORAD_CAT_ID": 58702,
    "ELEMENT_SET_NO": 999,
    "REV_AT_EPOCH": 7767,
    "BSTAR": 0.00022801,
    "MEAN_MOTION_DOT": 5.139e-05,
    "MEAN_MOTION_DDOT": 0
  },
  {
    "OBJECT_NAME": "TIANMU-1 18",
    "OBJECT_ID": "2024-004D",
    "EPOCH": "2025-05-31T20:53:44.032992",
    "MEAN_MOTION": 15.21928295,
    "ECCENTRICITY": 0.0004166,
    "INCLINATION": 97.4647,
    "RA_OF_ASC_NODE": 334.4962,
    "ARG_OF_PERICENTER": 239.7308,
    "MEAN_ANOMALY": 120.3516,
    "EPHEMERIS_TYPE": 0,
    "CLASSIFICATION_TYPE": "U",
    "NORAD_CAT_ID": 58703,
    "ELEMENT_SET_NO": 999,
    "REV_AT_EPOCH": 7768,
    "BSTAR": 0.00023373,
    "MEAN_MOTION_DOT": 5.256e-05,
    "MEAN_MOTION_DDOT": 0
  },
  {
    "OBJECT_NAME": "INSAT-3DS",
    "OBJECT_ID": "2024-033A",
    "EPOCH": "2025-05-31T19:22:38.527104",
    "MEAN_MOTION": 1.00271078,
    "ECCENTRICITY": 0.0001044,
    "INCLINATION": 0.0166,
    "RA_OF_ASC_NODE": 283.5151,
    "ARG_OF_PERICENTER": 132.7275,
    "MEAN_ANOMALY": 206.0296,
    "EPHEMERIS_TYPE": 0,
    "CLASSIFICATION_TYPE": "U",
    "NORAD_CAT_ID": 58990,
    "ELEMENT_SET_NO": 999,
    "REV_AT_EPOCH": 499,
    "BSTAR": 0,
    "MEAN_MOTION_DOT": -1.61e-06,
    "MEAN_MOTION_DDOT": 0
  }
]